[{"OBJECT_NAME":"SATGUS","OBJECT_ID":"2025-009DJ","EPOCH":"2026-03-09T16:57:39.644640","MEAN_MOTION":14.99840473,"ECCENTRICITY":0.00056702,"INCLINATION":97.7097,"RA_OF_ASC_NODE":150.9679,"ARG_OF_PERICENTER":96.3538,"MEAN_ANOMALY":263.8332,"EPHEMERIS_TYPE":0,"CLASSIFICATION_TYPE":"U","NORAD_CAT_ID":62713,"ELEMENT_SET_NO":999,"REV_AT_EPOCH":6264,"BSTAR":0.00076063433,"MEAN_MOTION_DOT":9.37e-5,"MEAN_MOTION_DDOT":0},{"OBJECT_NAME":"STARLINK-34428","OBJECT_ID":"2025-123C","EPOCH":"2026-03-09T16:54:24.343488","MEAN_MOTION":14.98337283,"ECCENTRICITY":0.0003157,"INCLINATION":70.003,"RA_OF_ASC_NODE":194.3014,"ARG_OF_PERICENTER":272.9746,"MEAN_ANOMALY":87.1052,"EPHEMERIS_TYPE":0,"CLASSIFICATION_TYPE":"U","NORAD_CAT_ID":64293,"ELEMENT_SET_NO":999,"REV_AT_EPOCH":4284,"BSTAR":0.00064668709,"MEAN_MOTION_DOT":7.633e-5,"MEAN_MOTION_DDOT":0}]
